STARLINK-36707          
1 67706U 26025P   26064.25003472  .00083583  00000+0  55652-3 0  9994
2 67706  97.2855 175.6760 0001491  70.0686 356.5969 15.75159015  4981
STARLINK-36645          
1 67707U 26025Q   26064.26193994  .00509647  00000+0  31939-2 0  9990
2 67707  97.2855 175.6297 0001492 146.6495 213.4865 15.75363904  5246
STARLINK-36287          
1 67708U 26025R   26064.25003472 -.01200880  00000+0 -86859-2 0  9992
2 67708  97.2856 175.7049 0001705  62.5870  73.4601 15.76174810  5300
STARLINK-36698          
1 67709U 26025S   26064.25003472 -.01840118  00000+0 -12798-1 0  9997
2 67709  97.2856 175.7229 0001957  68.8662 109.7274 15.77360181  5148
STARLINK-36344          
1 67710U 26025T   26064.25003472  .00144091  00000+0  95339-3 0  9997
2 67710  97.2858 175.6865 0001264 102.9670 347.7045 15.75124911  5302
STARLINK-36687          
1 67711U 26025U   26064.28338741  .00282124  00000+0  14194-2 0  9990
2 67711  97.2853 175.7525 0001408  66.9884 293.1533 15.80925780  5268
STARLINK-36705          
1 67712U 26025V   26064.30570420  .00155513  00000+0  10207-2 0  9998
2 67712  97.2869 175.7196 0001524  71.2062 288.9369 15.75277922  5256
STARLINK-36708          
1 67713U 26025W   26062.24691656  .00571415  00000+0  27641-2 0  9998
2 67713  97.2866 173.6220 0001327 127.8035 232.3354 15.81043377  4931
STARLINK-36702          
1 67714U 26025X   26064.27473600 -.00896888  00000+0 -54751-2 0  9999
2 67714  97.2858 175.7625 0001978 328.0656  32.0491 15.79620929  5255
STARLINK-36718          
1 67715U 26025Y   26064.26836116  .00533321  00000+0  25936-2 0  9995
2 67715  97.2858 175.7714 0000945  83.1117 277.0258 15.81023468  5259
STARLINK-36715          
1 67716U 26025Z   26064.20712483  .00388524  00000+0  19326-2 0  9999
2 67716  97.2850 175.7014 0001963 101.2598 258.8891 15.80901004  5240
STARLINK-36385          
1 67717U 26025AA  26064.27667800  .00530484  00000+0  25938-2 0  9999
2 67717  97.2866 175.7610 0001275  70.4619 289.6787 15.80912753  5257
CZ-2F DEB               
1 67718U 26024E   26058.50732833  .00191604  00000+0  35886-2 0  9997
2 67718  50.3169  68.5830 0246509 240.0171 117.6115 15.20915897  3086
CZ-2F DEB               
1 67719U 26024F   26064.29334372  .00164538  00000+0  39598-2 0  9997
2 67719  49.7929  43.0870 0315559 253.8358 102.7645 15.02277244  3581
CZ-2F DEB               
1 67720U 26024G   26064.20654782  .00153396  00000+0  38015-2 0  9993
2 67720  49.8320  44.0642 0326476 249.6343 106.9250 14.99536905  3882
STARLINK-36772          
1 67721U 26026A   26064.25003472 -.01997283  00000+0 -23149-1 0  9990
2 67721  97.2835 118.6754 0001810  75.3224 142.3253 15.65013657  4603
