[{"OBJECT_NAME":"STARLINK-36707","OBJECT_ID":"2026-025P","EPOCH":"2026-03-05T06:00:02.999808","MEAN_MOTION":15.75159015,"ECCENTRICITY":0.00014913,"INCLINATION":97.2855,"RA_OF_ASC_NODE":175.676,"ARG_OF_PERICENTER":70.0686,"MEAN_ANOMALY":356.5969,"EPHEMERIS_TYPE":0,"CLASSIFICATION_TYPE":"U","NORAD_CAT_ID":67706,"ELEMENT_SET_NO":999,"REV_AT_EPOCH":498,"BSTAR":0.0005565169,"MEAN_MOTION_DOT":0.00083583,"MEAN_MOTION_DDOT":0},{"OBJECT_NAME":"STARLINK-36645","OBJECT_ID":"2026-025Q","EPOCH":"2026-03-05T06:17:11.610816","MEAN_MOTION":15.75363904,"ECCENTRICITY":0.00014922,"INCLINATION":97.2855,"RA_OF_ASC_NODE":175.6297,"ARG_OF_PERICENTER":146.6495,"MEAN_ANOMALY":213.4865,"EPHEMERIS_TYPE":0,"CLASSIFICATION_TYPE":"U","NORAD_CAT_ID":67707,"ELEMENT_SET_NO":999,"REV_AT_EPOCH":524,"BSTAR":0.0031938887,"MEAN_MOTION_DOT":0.00509647,"MEAN_MOTION_DDOT":0},{"OBJECT_NAME":"STARLINK-36287","OBJECT_ID":"2026-025R","EPOCH":"2026-03-05T06:00:02.999808","MEAN_MOTION":15.7617481,"ECCENTRICITY":0.00017055,"INCLINATION":97.2856,"RA_OF_ASC_NODE":175.7049,"ARG_OF_PERICENTER":62.587,"MEAN_ANOMALY":73.4601,"EPHEMERIS_TYPE":0,"CLASSIFICATION_TYPE":"U","NORAD_CAT_ID":67708,"ELEMENT_SET_NO":999,"REV_AT_EPOCH":530,"BSTAR":-0.0086858831,"MEAN_MOTION_DOT":-0.0120088,"MEAN_MOTION_DDOT":0},{"OBJECT_NAME":"STARLINK-36698","OBJECT_ID":"2026-025S","EPOCH":"2026-03-05T06:00:02.999808","MEAN_MOTION":15.77360181,"ECCENTRICITY":0.0001957,"INCLINATION":97.2856,"RA_OF_ASC_NODE":175.7229,"ARG_OF_PERICENTER":68.8662,"MEAN_ANOMALY":109.7274,"EPHEMERIS_TYPE":0,"CLASSIFICATION_TYPE":"U","NORAD_CAT_ID":67709,"ELEMENT_SET_NO":999,"REV_AT_EPOCH":514,"BSTAR":-0.012798332,"MEAN_MOTION_DOT":-0.01840118,"MEAN_MOTION_DDOT":0},{"OBJECT_NAME":"STARLINK-36344","OBJECT_ID":"2026-025T","EPOCH":"2026-03-05T06:00:02.999808","MEAN_MOTION":15.75124911,"ECCENTRICITY":0.0001264,"INCLINATION":97.2858,"RA_OF_ASC_NODE":175.6865,"ARG_OF_PERICENTER":102.967,"MEAN_ANOMALY":347.7045,"EPHEMERIS_TYPE":0,"CLASSIFICATION_TYPE":"U","NORAD_CAT_ID":67710,"ELEMENT_SET_NO":999,"REV_AT_EPOCH":530,"BSTAR":0.00095338587,"MEAN_MOTION_DOT":0.00144091,"MEAN_MOTION_DDOT":0},{"OBJECT_NAME":"STARLINK-36687","OBJECT_ID":"2026-025U","EPOCH":"2026-03-05T06:48:04.672224","MEAN_MOTION":15.8092578,"ECCENTRICITY":0.0001408,"INCLINATION":97.2853,"RA_OF_ASC_NODE":175.7525,"ARG_OF_PERICENTER":66.9884,"MEAN_ANOMALY":293.1533,"EPHEMERIS_TYPE":0,"CLASSIFICATION_TYPE":"U","NORAD_CAT_ID":67711,"ELEMENT_SET_NO":999,"REV_AT_EPOCH":526,"BSTAR":0.0014193738,"MEAN_MOTION_DOT":0.00282124,"MEAN_MOTION_DDOT":0},{"OBJECT_NAME":"STARLINK-36705","OBJECT_ID":"2026-025V","EPOCH":"2026-03-05T07:20:12.842880","MEAN_MOTION":15.75277922,"ECCENTRICITY":0.00015249,"INCLINATION":97.2869,"RA_OF_ASC_NODE":175.7196,"ARG_OF_PERICENTER":71.2062,"MEAN_ANOMALY":288.9369,"EPHEMERIS_TYPE":0,"CLASSIFICATION_TYPE":"U","NORAD_CAT_ID":67712,"ELEMENT_SET_NO":999,"REV_AT_EPOCH":525,"BSTAR":0.0010207301,"MEAN_MOTION_DOT":0.00155513,"MEAN_MOTION_DDOT":0},{"OBJECT_NAME":"STARLINK-36708","OBJECT_ID":"2026-025W","EPOCH":"2026-03-03T05:55:33.590784","MEAN_MOTION":15.81043377,"ECCENTRICITY":0.00013277,"INCLINATION":97.2866,"RA_OF_ASC_NODE":173.622,"ARG_OF_PERICENTER":127.8035,"MEAN_ANOMALY":232.3354,"EPHEMERIS_TYPE":0,"CLASSIFICATION_TYPE":"U","NORAD_CAT_ID":67713,"ELEMENT_SET_NO":999,"REV_AT_EPOCH":493,"BSTAR":0.002764055,"MEAN_MOTION_DOT":0.00571415,"MEAN_MOTION_DDOT":0},{"OBJECT_NAME":"STARLINK-36702","OBJECT_ID":"2026-025X","EPOCH":"2026-03-05T06:35:37.190400","MEAN_MOTION":15.79620929,"ECCENTRICITY":0.0001978,"INCLINATION":97.2858,"RA_OF_ASC_NODE":175.7625,"ARG_OF_PERICENTER":328.0656,"MEAN_ANOMALY":32.0491,"EPHEMERIS_TYPE":0,"CLASSIFICATION_TYPE":"U","NORAD_CAT_ID":67714,"ELEMENT_SET_NO":999,"REV_AT_EPOCH":525,"BSTAR":-0.0054751089,"MEAN_MOTION_DOT":-0.00896888,"MEAN_MOTION_DDOT":0},{"OBJECT_NAME":"STARLINK-36718","OBJECT_ID":"2026-025Y","EPOCH":"2026-03-05T06:26:26.404224","MEAN_MOTION":15.81023468,"ECCENTRICITY":9.454e-5,"INCLINATION":97.2858,"RA_OF_ASC_NODE":175.7714,"ARG_OF_PERICENTER":83.1117,"MEAN_ANOMALY":277.0258,"EPHEMERIS_TYPE":0,"CLASSIFICATION_TYPE":"U","NORAD_CAT_ID":67715,"ELEMENT_SET_NO":999,"REV_AT_EPOCH":525,"BSTAR":0.0025935631,"MEAN_MOTION_DOT":0.00533321,"MEAN_MOTION_DDOT":0},{"OBJECT_NAME":"STARLINK-36715","OBJECT_ID":"2026-025Z","EPOCH":"2026-03-05T04:58:15.585312","MEAN_MOTION":15.80901004,"ECCENTRICITY":0.00019638,"INCLINATION":97.285,"RA_OF_ASC_NODE":175.7014,"ARG_OF_PERICENTER":101.2598,"MEAN_ANOMALY":258.8891,"EPHEMERIS_TYPE":0,"CLASSIFICATION_TYPE":"U","NORAD_CAT_ID":67716,"ELEMENT_SET_NO":999,"REV_AT_EPOCH":524,"BSTAR":0.0019326292,"MEAN_MOTION_DOT":0.00388524,"MEAN_MOTION_DDOT":0},{"OBJECT_NAME":"STARLINK-36385","OBJECT_ID":"2026-025AA","EPOCH":"2026-03-05T06:38:24.979200","MEAN_MOTION":15.80912753,"ECCENTRICITY":0.00012757,"INCLINATION":97.2866,"RA_OF_ASC_NODE":175.761,"ARG_OF_PERICENTER":70.4619,"MEAN_ANOMALY":289.6787,"EPHEMERIS_TYPE":0,"CLASSIFICATION_TYPE":"U","NORAD_CAT_ID":67717,"ELEMENT_SET_NO":999,"REV_AT_EPOCH":525,"BSTAR":0.002593766,"MEAN_MOTION_DOT":0.00530484,"MEAN_MOTION_DDOT":0},{"OBJECT_NAME":"CZ-2F DEB","OBJECT_ID":"2026-024E","EPOCH":"2026-02-27T12:10:33.167712","MEAN_MOTION":15.20915897,"ECCENTRICITY":0.02465096,"INCLINATION":50.3169,"RA_OF_ASC_NODE":68.583,"ARG_OF_PERICENTER":240.0171,"MEAN_ANOMALY":117.6115,"EPHEMERIS_TYPE":0,"CLASSIFICATION_TYPE":"U","NORAD_CAT_ID":67718,"ELEMENT_SET_NO":999,"REV_AT_EPOCH":308,"BSTAR":0.0035886422,"MEAN_MOTION_DOT":0.00191604,"MEAN_MOTION_DDOT":0},{"OBJECT_NAME":"CZ-2F DEB","OBJECT_ID":"2026-024F","EPOCH":"2026-03-05T07:02:24.897408","MEAN_MOTION":15.02277244,"ECCENTRICITY":0.03155592,"INCLINATION":49.7929,"RA_OF_ASC_NODE":43.087,"ARG_OF_PERICENTER":253.8358,"MEAN_ANOMALY":102.7645,"EPHEMERIS_TYPE":0,"CLASSIFICATION_TYPE":"U","NORAD_CAT_ID":67719,"ELEMENT_SET_NO":999,"REV_AT_EPOCH":358,"BSTAR":0.0039597535,"MEAN_MOTION_DOT":0.00164538,"MEAN_MOTION_DDOT":0},{"OBJECT_NAME":"CZ-2F DEB","OBJECT_ID":"2026-024G","EPOCH":"2026-03-05T04:57:25.731648","MEAN_MOTION":14.99536905,"ECCENTRICITY":0.0326476,"INCLINATION":49.832,"RA_OF_ASC_NODE":44.0642,"ARG_OF_PERICENTER":249.6343,"MEAN_ANOMALY":106.925,"EPHEMERIS_TYPE":0,"CLASSIFICATION_TYPE":"U","NORAD_CAT_ID":67720,"ELEMENT_SET_NO":999,"REV_AT_EPOCH":388,"BSTAR":0.0038015056,"MEAN_MOTION_DOT":0.00153396,"MEAN_MOTION_DDOT":0},{"OBJECT_NAME":"STARLINK-36772","OBJECT_ID":"2026-026A","EPOCH":"2026-03-05T06:00:02.999808","MEAN_MOTION":15.65013657,"ECCENTRICITY":0.00018101,"INCLINATION":97.2835,"RA_OF_ASC_NODE":118.6754,"ARG_OF_PERICENTER":75.3224,"MEAN_ANOMALY":142.3253,"EPHEMERIS_TYPE":0,"CLASSIFICATION_TYPE":"U","NORAD_CAT_ID":67721,"ELEMENT_SET_NO":999,"REV_AT_EPOCH":460,"BSTAR":-0.023148728,"MEAN_MOTION_DOT":-0.01997283,"MEAN_MOTION_DDOT":0}]
